STARLINK-3293           
1 50176U 21125W   26068.82048934  .00001493  00000+0  11189-3 0  9999
2 50176  53.2166 248.5343 0001258  86.2582 273.8554 15.08840405236662
PRSC-S1                 
1 65055U 25164A   26068.60758212  .00007316  00000+0  46631-3 0  9991
2 65055  41.1290 129.3637 0004466 348.3012  11.7698 15.08919510 33403
